{
  "type": "FeatureCollection",
  "features": [
    {
      "type": "Feature",
      "properties": {
        "norad_id": 66586,
        "name": "TJS-21",
        "group": "last-30-days",
        "lat": 63.13580380749857,
        "lon": -101.65437315596472,
        "alt_km": 38145.603332041406,
        "timestamp": "2025-12-07T11:27:48.741123+00:00",
        "meta_object_name": "TJS-21",
        "meta_object_id": "2025-269A",
        "meta_epoch": "2025-12-06T17:47:41.602272",
        "meta_mean_motion": 2.00560491,
        "meta_eccentricity": 0.68052367,
        "meta_inclination": 63.2668,
        "meta_ra_of_asc_node": 162.9832,
        "meta_arg_of_pericenter": 269.7989,
        "meta_mean_anomaly": 18.6583,
        "meta_ephemeris_type": 0,
        "meta_classification_type": "U",
        "meta_norad_cat_id": 66586,
        "meta_element_set_no": 999,
        "meta_rev_at_epoch": 32,
        "meta_bstar": -0.014744059,
        "meta_mean_motion_dot": 1.105e-05,
        "meta_mean_motion_ddot": 0,
        "tle_line1": "1 66586U 25269A   25340.74145373  .00001105  00000+0 -14744-1 0  9991",
        "tle_line2": "2 66586  63.2668 162.9832 6805236 269.7989  18.6583  2.00560491   328"
      },
      "geometry": {
        "type": "Point",
        "coordinates": [
          -101.65437315596472,
          63.13580380749857
        ]
      }
    },
    {
      "type": "Feature",
      "properties": {
        "norad_id": 66587,
        "name": "CZ-3B R/B",
        "group": "last-30-days",
        "lat": 25.95431813144488,
        "lon": -166.24806601899712,
        "alt_km": 36146.36315077346,
        "timestamp": "2025-12-07T11:27:48.741136+00:00",
        "meta_object_name": "CZ-3B R/B",
        "meta_object_id": "2025-269B",
        "meta_epoch": "2025-12-05T21:16:01.117056",
        "meta_mean_motion": 2.02575003,
        "meta_eccentricity": 0.75200619,
        "meta_inclination": 51.3669,
        "meta_ra_of_asc_node": 171.2323,
        "meta_arg_of_pericenter": 227.4915,
        "meta_mean_anomaly": 38.5744,
        "meta_ephemeris_type": 0,
        "meta_classification_type": "U",
        "meta_norad_cat_id": 66587,
        "meta_element_set_no": 999,
        "meta_rev_at_epoch": 31,
        "meta_bstar": 0.0017517289,
        "meta_mean_motion_dot": 0.00055981,
        "meta_mean_motion_ddot": -8.28456e-07,
        "tle_line1": "1 66587U 25269B   25339.88612404  .00055981 -82846-6  17517-2 0  9997",
        "tle_line2": "2 66587  51.3669 171.2323 7520061 227.4915  38.5744  2.02575003   313"
      },
      "geometry": {
        "type": "Point",
        "coordinates": [
          -166.24806601899712,
          25.95431813144488
        ]
      }
    },
    {
      "type": "Feature",
      "properties": {
        "norad_id": 66588,
        "name": "STARLINK-36076",
        "group": "last-30-days",
        "lat": 34.42296983118769,
        "lon": -88.93932462884533,
        "alt_km": 369.5680094520758,
        "timestamp": "2025-12-07T11:27:48.741149+00:00",
        "meta_object_name": "STARLINK-36076",
        "meta_object_id": "2025-270A",
        "meta_epoch": "2025-12-06T22:00:01.999584",
        "meta_mean_motion": 15.6714256,
        "meta_eccentricity": 0.00010268,
        "meta_inclination": 42.999,
        "meta_ra_of_asc_node": 227.073,
        "meta_arg_of_pericenter": 263.3011,
        "meta_mean_anomaly": 226.6327,
        "meta_ephemeris_type": 0,
        "meta_classification_type": "U",
        "meta_norad_cat_id": 66588,
        "meta_element_set_no": 999,
        "meta_rev_at_epoch": 346,
        "meta_bstar": -0.020574179,
        "meta_mean_motion_dot": -0.01995253,
        "meta_mean_motion_ddot": 0,
        "tle_line1": "1 66588U 25270A   25340.91668981 -.01995253  00000+0 -20574-1 0  9995",
        "tle_line2": "2 66588  42.9990 227.0730 0001026 263.3011 226.6327 15.67142560  3462"
      },
      "geometry": {
        "type": "Point",
        "coordinates": [
          -88.93932462884533,
          34.42296983118769
        ]
      }
    },
    {
      "type": "Feature",
      "properties": {
        "norad_id": 66589,
        "name": "STARLINK-35447",
        "group": "last-30-days",
        "lat": 36.12491163255406,
        "lon": -84.7314299180339,
        "alt_km": 369.4576773941617,
        "timestamp": "2025-12-07T11:27:48.741159+00:00",
        "meta_object_name": "STARLINK-35447",
        "meta_object_id": "2025-270B",
        "meta_epoch": "2025-12-06T22:00:01.999584",
        "meta_mean_motion": 15.67155778,
        "meta_eccentricity": 0.00012646,
        "meta_inclination": 42.9987,
        "meta_ra_of_asc_node": 227.0628,
        "meta_arg_of_pericenter": 266.3442,
        "meta_mean_anomaly": 227.4166,
        "meta_ephemeris_type": 0,
        "meta_classification_type": "U",
        "meta_norad_cat_id": 66589,
        "meta_element_set_no": 999,
        "meta_rev_at_epoch": 357,
        "meta_bstar": -0.020728332,
        "meta_mean_motion_dot": -0.02009524,
        "meta_mean_motion_ddot": 0,
        "tle_line1": "1 66589U 25270B   25340.91668981 -.02009524  00000+0 -20728-1 0  9995",
        "tle_line2": "2 66589  42.9987 227.0628 0001264 266.3442 227.4166 15.67155778  3577"
      },
      "geometry": {
        "type": "Point",
        "coordinates": [
          -84.7314299180339,
          36.12491163255406
        ]
      }
    },
    {
      "type": "Feature",
      "properties": {
        "norad_id": 66590,
        "name": "STARLINK-35429",
        "group": "last-30-days",
        "lat": 35.29376759578968,
        "lon": -86.85430515604686,
        "alt_km": 369.53980184559987,
        "timestamp": "2025-12-07T11:27:48.741169+00:00",
        "meta_object_name": "STARLINK-35429",
        "meta_object_id": "2025-270C",
        "meta_epoch": "2025-12-06T22:00:01.999584",
        "meta_mean_motion": 15.67153528,
        "meta_eccentricity": 0.00012475,
        "meta_inclination": 42.9989,
        "meta_ra_of_asc_node": 227.0675,
        "meta_arg_of_pericenter": 267.5201,
        "meta_mean_anomaly": 224.3258,
        "meta_ephemeris_type": 0,
        "meta_classification_type": "U",
        "meta_norad_cat_id": 66590,
        "meta_element_set_no": 999,
        "meta_rev_at_epoch": 357,
        "meta_bstar": -0.020696492,
        "meta_mean_motion_dot": -0.02006636,
        "meta_mean_motion_ddot": 0,
        "tle_line1": "1 66590U 25270C   25340.91668981 -.02006636  00000+0 -20696-1 0  9992",
        "tle_line2": "2 66590  42.9989 227.0675 0001247 267.5201 224.3258 15.67153528  3579"
      },
      "geometry": {
        "type": "Point",
        "coordinates": [
          -86.85430515604686,
          35.29376759578968
        ]
      }
    },
    {
      "type": "Feature",
      "properties": {
        "norad_id": 66591,
        "name": "STARLINK-36058",
        "group": "last-30-days",
        "lat": 36.91855577281931,
        "lon": -82.56200875417959,
        "alt_km": 369.3591199277953,
        "timestamp": "2025-12-07T11:27:48.741182+00:00",
        "meta_object_name": "STARLINK-36058",
        "meta_object_id": "2025-270D",
        "meta_epoch": "2025-12-06T22:00:01.999584",
        "meta_mean_motion": 15.67154595,
        "meta_eccentricity": 0.00012887,
        "meta_inclination": 42.9987,
        "meta_ra_of_asc_node": 227.0581,
        "meta_arg_of_pericenter": 266.9111,
        "meta_mean_anomaly": 228.7681,
        "meta_ephemeris_type": 0,
        "meta_classification_type": "U",
        "meta_norad_cat_id": 66591,
        "meta_element_set_no": 999,
        "meta_rev_at_epoch": 346,
        "meta_bstar": -0.020722936,
        "meta_mean_motion_dot": -0.02008998,
        "meta_mean_motion_ddot": 0,
        "tle_line1": "1 66591U 25270D   25340.91668981 -.02008998  00000+0 -20723-1 0  9997",
        "tle_line2": "2 66591  42.9987 227.0581 0001288 266.9111 228.7681 15.67154595  3463"
      },
      "geometry": {
        "type": "Point",
        "coordinates": [
          -82.56200875417959,
          36.91855577281931
        ]
      }
    },
    {
      "type": "Feature",
      "properties": {
        "norad_id": 66592,
        "name": "STARLINK-36066",
        "group": "last-30-days",
        "lat": 37.671976597116405,
        "lon": -80.34798542992806,
        "alt_km": 369.2317968377074,
        "timestamp": "2025-12-07T11:27:48.741192+00:00",
        "meta_object_name": "STARLINK-36066",
        "meta_object_id": "2025-270E",
        "meta_epoch": "2025-12-06T22:00:01.999584",
        "meta_mean_motion": 15.67153903,
        "meta_eccentricity": 0.00012348,
        "meta_inclination": 42.9989,
        "meta_ra_of_asc_node": 227.0534,
        "meta_arg_of_pericenter": 265.3912,
        "meta_mean_anomaly": 232.2039,
        "meta_ephemeris_type": 0,
        "meta_classification_type": "U",
        "meta_norad_cat_id": 66592,
        "meta_element_set_no": 999,
        "meta_rev_at_epoch": 336,
        "meta_bstar": -0.020692701,
        "meta_mean_motion_dot": -0.02006331,
        "meta_mean_motion_ddot": 0,
        "tle_line1": "1 66592U 25270E   25340.91668981 -.02006331  00000+0 -20693-1 0  9993",
        "tle_line2": "2 66592  42.9989 227.0534 0001234 265.3912 232.2039 15.67153903  3365"
      },
      "geometry": {
        "type": "Point",
        "coordinates": [
          -80.34798542992806,
          37.671976597116405
        ]
      }
    }
  ]
}